OBJECT_NAME,OBJECT_ID,EPOCH,MEAN_MOTION,ECCENTRICITY,INCLINATION,RA_OF_ASC_NODE,ARG_OF_PERICENTER,MEAN_ANOMALY,EPHEMERIS_TYPE,CLASSIFICATION_TYPE,NORAD_CAT_ID,ELEMENT_SET_NO,REV_AT_EPOCH,BSTAR,MEAN_MOTION_DOT,MEAN_MOTION_DDOT
SKYSAT-C1,2016-040C,2026-06-18T01:30:50.674464,15.36313451,.00034024,96.9555,200.7355,56.2857,303.8712,0,U,41601,999,55800,.19418645E-3,.6801E-4,0
LAPAN-A3,2016-040E,2026-06-18T07:13:03.580896,15.33110590,.00107634,97.1489,165.4097,22.1337,338.0368,0,U,41603,999,55498,.89787013E-4,.2801E-4,0
GAOFEN-3,2016-049A,2026-06-18T07:59:12.241248,14.42216337,.00014183,98.4005,177.1017,97.8793,262.2558,0,U,41727,999,51881,.79841244E-4,.22E-5,0
SKYSAT-C4,2016-058B,2026-06-18T01:01:48.900576,15.48608666,.0001464,96.9168,190.7793,136.1487,223.9881,0,U,41771,999,54560,.25122705E-3,.13329E-3,0
SKYSAT-C5,2016-058C,2026-06-18T01:58:13.431360,15.34481212,.00009997,97.0465,209.6827,308.0168,52.0986,0,U,41772,999,54388,.18984551E-3,.6266E-4,0
SKYSAT-C2,2016-058D,2026-06-18T00:54:47.726496,15.42087351,.00046179,97.0162,191.1010,68.9036,291.2706,0,U,41773,999,54518,.23453008E-3,.995E-4,0
SKYSAT-C3,2016-058E,2026-06-18T01:05:49.287840,15.52571439,.00014646,96.9001,199.8591,96.7444,263.3976,0,U,41774,999,54624,.31670544E-3,.19375E-3,0
ALSAT-1B,2016-059C,2026-06-18T07:51:44.163936,14.72276048,.00081474,97.7743,178.0421,216.0476,144.0183,0,U,41785,999,52074,.72139612E-4,.409E-5,0
PATHFINDER 1,2016-059E,2026-06-17T22:54:41.966496,14.67663897,.00278542,97.8166,168.1963,201.0695,158.9365,0,U,41787,999,51982,.83915905E-4,.433E-5,0
SCATSAT 1,2016-059H,2026-06-18T02:13:08.499072,14.79527176,.00534232,98.1191,232.8679,244.5024,115.0656,0,U,41790,999,10172,.12150984E-3,.873E-5,0
GOKTURK 1A,2016-073A,2026-06-18T06:31:23.341152,14.62775286,.00014497,98.1252,63.9299,75.5942,284.5421,0,U,41875,999,50898,.70425603E-4,.312E-5,0
RESOURCESAT-2A,2016-074A,2026-06-18T06:24:54.206784,14.21616106,.00033151,98.7528,242.7629,82.1670,277.9883,0,U,41877,999,49445,.3327491E-5,-.37E-6,0
CARTOSAT-2D,2017-008A,2026-06-18T06:40:31.415232,15.19213709,.00038623,97.4103,228.5641,229.4893,130.6005,0,U,41948,999,51774,.14534459E-3,.2993E-4,0
SENTINEL-2B,2017-013A,2026-06-18T07:49:58.641888,14.30817051,.00011786,98.5693,244.0848,89.0717,271.0601,0,U,42063,999,48480,.1477419E-4,-.5E-7,0
CARTOSAT-2E,2017-036C,2026-06-18T05:31:20.459424,15.19261242,.00024473,97.4271,229.0152,314.8403,45.2633,0,U,42767,999,49830,.13719539E-3,.2824E-4,0
FORMOSAT-5,2017-049A,2026-06-18T05:24:24.132384,14.50899218,.00126698,98.2254,244.5119,81.4871,278.7759,0,U,42920,999,46682,.42049176E-4,.122E-5,0
SENTINEL-5P,2017-064A,2026-06-18T06:13:12.370080,14.19519121,.00009791,98.7925,111.3828,86.3824,273.7464,0,U,42969,999,44971,.35401033E-4,.3E-6,0
SKYSAT-C11,2017-068A,2026-06-17T22:57:23.839488,15.57928902,.00006049,97.4359,317.8201,93.0104,267.1220,0,U,42987,999,48336,.3355167E-3,.24996E-3,0
SKYSAT-C10,2017-068B,2026-06-17T22:39:55.484352,15.34649266,.00011142,97.4513,305.7983,97.6707,262.4662,0,U,42988,999,48247,.22747189E-3,.7557E-4,0
SKYSAT-C9,2017-068C,2026-06-17T21:18:49.508928,15.41576841,.00094027,97.4434,306.6830,130.7041,229.5024,0,U,42989,999,48286,.26892273E-3,.11235E-3,0
SKYSAT-C8,2017-068D,2026-06-17T21:57:01.146240,15.36988207,.00014648,97.4530,305.5708,95.5152,264.6259,0,U,42990,999,48242,.24569373E-3,.8807E-4,0
SKYSAT-C7,2017-068E,2026-06-17T23:21:37.011456,15.36940184,.00071908,97.4540,306.6199,104.3696,255.8346,0,U,42991,999,48249,.24878087E-3,.8911E-4,0
SKYSAT-C6,2017-068F,2026-06-18T07:41:53.670912,15.34226516,.00044868,97.4575,306.9376,134.6395,225.5215,0,U,42992,999,48249,.2222235E-3,.7283E-4,0
CARTOSAT-2F,2018-004A,2026-06-18T07:52:33.680640,15.19218317,.0000853,97.4780,228.9518,197.8911,162.2294,0,U,43111,999,46750,.4896463E-4,.963E-5,0
GAOFEN-1 02,2018-031A,2026-06-18T07:33:40.707072,14.76456662,.00037525,98.0525,231.8391,31.1012,329.0419,0,U,43259,999,44286,.31609137E-4,.168E-5,0
GAOFEN-1 03,2018-031B,2026-06-18T07:02:11.965920,14.76470530,.00037125,98.0517,231.6756,76.9372,283.2252,0,U,43260,999,44285,.89447304E-4,.571E-5,0
GAOFEN-1 04,2018-031D,2026-06-18T06:27:14.340672,14.76435438,.00021728,98.0526,231.8422,75.6070,284.5381,0,U,43262,999,44284,.93917546E-4,.602E-5,0
SENTINEL-3B,2018-039A,2026-06-18T02:26:00.762144,14.26734945,.000072,98.6248,236.6205,90.6978,269.4285,0,U,43437,999,42425,.52122506E-4,.82E-6,0
GAOFEN-5 01,2018-043A,2026-06-17T21:12:39.415392,14.60606020,.00030341,98.4569,140.4846,82.3249,277.8295,0,U,43461,999,43179,.6537663E-4,.269E-5,0
GAOFEN-6,2018-048A,2026-06-18T06:58:53.520672,14.76618754,.00118867,97.9439,232.0243,162.1664,197.9965,0,U,43484,999,43355,.34220076E-3,.2342E-4,0
