SKYSAT-C1               
1 41601U 16040C   26169.06308651  .00006801  00000+0  19419-3 0  9997
2 41601  96.9555 200.7355 0003402  56.2857 303.8712 15.36313451558001
LAPAN-A3                
1 41603U 16040E   26169.30073589  .00002801  00000+0  89787-4 0  9997
2 41603  97.1489 165.4097 0010763  22.1337 338.0368 15.33110590554981
GAOFEN-3                
1 41727U 16049A   26169.33278057  .00000220  00000+0  79841-4 0  9996
2 41727  98.4005 177.1017 0001418  97.8793 262.2558 14.42216337518816
SKYSAT-C4               
1 41771U 16058B   26169.04292709  .00013329  00000+0  25123-3 0  9990
2 41771  96.9168 190.7793 0001464 136.1487 223.9881 15.48608666545605
SKYSAT-C5               
1 41772U 16058C   26169.08209990  .00006266  00000+0  18985-3 0  9995
2 41772  97.0465 209.6827 0000999 308.0168  52.0986 15.34481212543880
SKYSAT-C2               
1 41773U 16058D   26169.03805239  .00009950  00000+0  23453-3 0  9998
2 41773  97.0162 191.1010 0004617  68.9036 291.2706 15.42087351545188
SKYSAT-C3               
1 41774U 16058E   26169.04570935  .00019375  00000+0  31671-3 0  9995
2 41774  96.9001 199.8591 0001464  96.7444 263.3976 15.52571439546240
ALSAT-1B                
1 41785U 16059C   26169.32759449  .00000409  00000+0  72140-4 0  9993
2 41785  97.7743 178.0421 0008147 216.0476 144.0183 14.72276048520743
PATHFINDER 1            
1 41787U 16059E   26168.95465239  .00000433  00000+0  83916-4 0  9994
2 41787  97.8166 168.1963 0027854 201.0695 158.9365 14.67663897519828
SCATSAT 1               
1 41790U 16059H   26169.09245948  .00000873  00000+0  12151-3 0  9997
2 41790  98.1191 232.8679 0053423 244.5024 115.0656 14.79527176101721
GOKTURK 1A              
1 41875U 16073A   26169.27179793  .00000312  00000+0  70426-4 0  9999
2 41875  98.1252  63.9299 0001449  75.5942 284.5421 14.62775286508986
RESOURCESAT-2A          
1 41877U 16074A   26169.26729406 -.00000037  00000+0  33275-5 0  9990
2 41877  98.7528 242.7629 0003315  82.1670 277.9883 14.21616106494454
CARTOSAT-2D             
1 41948U 17008A   26169.27814138  .00002993  00000+0  14534-3 0  9992
2 41948  97.4103 228.5641 0003862 229.4893 130.6005 15.19213709517743
SENTINEL-2B             
1 42063U 17013A   26169.32637317 -.00000005  00000+0  14774-4 0  9995
2 42063  98.5693 244.0848 0001178  89.0717 271.0601 14.30817051484807
CARTOSAT-2E             
1 42767U 17036C   26169.23009791  .00002824  00000+0  13720-3 0  9999
2 42767  97.4271 229.0152 0002447 314.8403  45.2633 15.19261242498309
FORMOSAT-5              
1 42920U 17049A   26169.22527931  .00000122  00000+0  42049-4 0  9990
2 42920  98.2254 244.5119 0012669  81.4871 278.7759 14.50899218466826
SENTINEL-5P             
1 42969U 17064A   26169.25917095  .00000030  00000+0  35401-4 0  9999
2 42969  98.7925 111.3828 0000979  86.3824 273.7464 14.19519121449714
SKYSAT-C11              
1 42987U 17068A   26168.95652592  .00024996  00000+0  33552-3 0  9998
2 42987  97.4359 317.8201 0000604  93.0104 267.1220 15.57928902483360
SKYSAT-C10              
1 42988U 17068B   26168.94439218  .00007557  00000+0  22747-3 0  9994
2 42988  97.4513 305.7983 0001114  97.6707 262.4662 15.34649266482479
SKYSAT-C9               
1 42989U 17068C   26168.88807302  .00011235  00000+0  26892-3 0  9994
2 42989  97.4434 306.6830 0009402 130.7041 229.5024 15.41576841482866
SKYSAT-C8               
1 42990U 17068D   26168.91459660  .00008807  00000+0  24569-3 0  9990
2 42990  97.4530 305.5708 0001464  95.5152 264.6259 15.36988207482427
SKYSAT-C7               
1 42991U 17068E   26168.97334504  .00008911  00000+0  24878-3 0  9995
2 42991  97.4540 306.6199 0007190 104.3696 255.8346 15.36940184482497
SKYSAT-C6               
1 42992U 17068F   26169.32076008  .00007283  00000+0  22222-3 0  9990
2 42992  97.4575 306.9376 0004486 134.6395 225.5215 15.34226516482496
CARTOSAT-2F             
1 43111U 18004A   26169.32816760  .00000963  00000+0  48965-4 0  9993
2 43111  97.4780 228.9518 0000853 197.8911 162.2294 15.19218317467500
GAOFEN-1 02             
1 43259U 18031A   26169.31505448  .00000168  00000+0  31609-4 0  9997
2 43259  98.0525 231.8391 0003752  31.1012 329.0419 14.76456662442865
GAOFEN-1 03             
1 43260U 18031B   26169.29319405  .00000571  00000+0  89447-4 0  9993
2 43260  98.0517 231.6756 0003712  76.9372 283.2252 14.76470530442858
GAOFEN-1 04             
1 43262U 18031D   26169.26891598  .00000602  00000+0  93918-4 0  9993
2 43262  98.0526 231.8422 0002172  75.6070 284.5381 14.76435438442846
SENTINEL-3B             
1 43437U 18039A   26169.10139771  .00000082  00000+0  52123-4 0  9991
2 43437  98.6248 236.6205 0000720  90.6978 269.4285 14.26734945424250
GAOFEN-5 01             
1 43461U 18043A   26168.88378953  .00000269  00000+0  65377-4 0  9996
2 43461  98.4569 140.4846 0003034  82.3249 277.8295 14.60606020431795
GAOFEN-6                
1 43484U 18048A   26169.29089723  .00002342  00000+0  34220-3 0  9992
2 43484  97.9439 232.0243 0011886 162.1664 197.9965 14.76618754433557
